[
    {
        "Altitude(m)": 705459.3376129669,
        "Argument of Periapsis(deg)": 0.007973084830638947,
        "Eccentricity": 0.0,
        "Inclination(deg)": 45.0,
        "Latitude(deg)": 36.58547669110375,
        "Longitude(deg)": -2.947119407362096,
        "Mean Anomaly(deg)": 57.16415165323657,
        "RAAN(deg)": 49.992473640979256,
        "Satellite Name": "Constellation 1 223",
        "Satellite Number": 223,
        "Semi-Major Axis(m)": 7083131.272910544,
        "Time(s)": 133
    },
    {
        "Altitude(m)": 705465.1510923841,
        "Argument of Periapsis(deg)": 0.008033032836884352,
        "Eccentricity": 0.0,
        "Inclination(deg)": 45.0,
        "Latitude(deg)": 36.61451419728113,
        "Longitude(deg)": -2.884874886663967,
        "Mean Anomaly(deg)": 57.22485279348648,
        "RAAN(deg)": 49.992417051813696,
        "Satellite Name": "Constellation 1 223",
        "Satellite Number": 223,
        "Semi-Major Axis(m)": 7083131.272910544,
        "Time(s)": 134
    },
    {
        "Altitude(m)": 705470.9610300511,
        "Argument of Periapsis(deg)": 0.008092980843129758,
        "Eccentricity": 0.0,
        "Inclination(deg)": 45.0,
        "Latitude(deg)": 36.64351459781875,
        "Longitude(deg)": -2.8225806558090514,
        "Mean Anomaly(deg)": 57.28555393373637,
        "RAAN(deg)": 49.99236046264812,
        "Satellite Name": "Constellation 1 223",
        "Satellite Number": 223,
        "Semi-Major Axis(m)": 7083131.272910544,
        "Time(s)": 135
    },
    {
        "Altitude(m)": 705476.7673896314,
        "Argument of Periapsis(deg)": 0.008152928849375162,
        "Eccentricity": 0.0,
        "Inclination(deg)": 45.0,
        "Latitude(deg)": 36.67247782648861,
        "Longitude(deg)": -2.7602366885282974,
        "Mean Anomaly(deg)": 57.346255073986256,
        "RAAN(deg)": 49.99230387348255,
        "Satellite Name": "Constellation 1 223",
        "Satellite Number": 223,
        "Semi-Major Axis(m)": 7083131.272910544,
        "Time(s)": 136
    },
    {
        "Altitude(m)": 705482.5701348211,
        "Argument of Periapsis(deg)": 0.008212876855620568,
        "Eccentricity": 0.0,
        "Inclination(deg)": 45.0,
        "Latitude(deg)": 36.70140381701185,
        "Longitude(deg)": -2.697842958826131,
        "Mean Anomaly(deg)": 57.406956214236175,
        "RAAN(deg)": 49.992247284316974,
        "Satellite Name": "Constellation 1 223",
        "Satellite Number": 223,
        "Semi-Major Axis(m)": 7083131.272910544,
        "Time(s)": 137
    },
    {
        "Altitude(m)": 705488.3692293507,
        "Argument of Periapsis(deg)": 0.008272824861865974,
        "Eccentricity": 0.0,
        "Inclination(deg)": 45.0,
        "Latitude(deg)": 36.73029250305884,
        "Longitude(deg)": -2.6353994409820243,
        "Mean Anomaly(deg)": 57.467657354486064,
        "RAAN(deg)": 49.99219069515141,
        "Satellite Name": "Constellation 1 223",
        "Satellite Number": 223,
        "Semi-Major Axis(m)": 7083131.272910544,
        "Time(s)": 138
    },
    {
        "Altitude(m)": 705494.1646369788,
        "Argument of Periapsis(deg)": 0.00833277286811138,
        "Eccentricity": 0.0,
        "Inclination(deg)": 45.0,
        "Latitude(deg)": 36.75914381824971,
        "Longitude(deg)": -2.57290610955133,
        "Mean Anomaly(deg)": 57.528358494735976,
        "RAAN(deg)": 49.99213410598583,
        "Satellite Name": "Constellation 1 223",
        "Satellite Number": 223,
        "Semi-Major Axis(m)": 7083131.272910544,
        "Time(s)": 139
    },
    {
        "Altitude(m)": 705499.9563215039,
        "Argument of Periapsis(deg)": 0.008392720874356788,
        "Eccentricity": 0.0,
        "Inclination(deg)": 45.0,
        "Latitude(deg)": 36.7879576961545,
        "Longitude(deg)": -2.510362939367217,
        "Mean Anomaly(deg)": 57.58905963498589,
        "RAAN(deg)": 49.992077516820274,
        "Satellite Name": "Constellation 1 223",
        "Satellite Number": 223,
        "Semi-Major Axis(m)": 7083131.272910544,
        "Time(s)": 140
    },
    {
        "Altitude(m)": 705505.7442467605,
        "Argument of Periapsis(deg)": 0.008452668880602192,
        "Eccentricity": 0.0,
        "Inclination(deg)": 45.0,
        "Latitude(deg)": 36.81673407029314,
        "Longitude(deg)": -2.4477700736388703,
        "Mean Anomaly(deg)": 57.64976077523577,
        "RAAN(deg)": 49.9920209276547,
        "Satellite Name": "Constellation 1 223",
        "Satellite Number": 223,
        "Semi-Major Axis(m)": 7083131.272910544,
        "Time(s)": 141
    },
    {
        "Altitude(m)": 705511.5283766127,
        "Argument of Periapsis(deg)": 0.008512616886847598,
        "Eccentricity": 0.0,
        "Inclination(deg)": 45.0,
        "Latitude(deg)": 36.84547287413708,
        "Longitude(deg)": -2.3851271515647627,
        "Mean Anomaly(deg)": 57.71046191548565,
        "RAAN(deg)": 49.99196433848913,
        "Satellite Name": "Constellation 1 223",
        "Satellite Number": 223,
        "Semi-Major Axis(m)": 7083131.272910544,
        "Time(s)": 142
    },
    {
        "Altitude(m)": 705517.3086749552,
        "Argument of Periapsis(deg)": 0.008572564893093004,
        "Eccentricity": 0.0,
        "Inclination(deg)": 45.0,
        "Latitude(deg)": 36.87417404110778,
        "Longitude(deg)": -2.322434316916269,
        "Mean Anomaly(deg)": 57.77116305573556,
        "RAAN(deg)": 49.99190774932356,
        "Satellite Name": "Constellation 1 223",
        "Satellite Number": 223,
        "Semi-Major Axis(m)": 7083131.272910544,
        "Time(s)": 143
    },
    {
        "Altitude(m)": 705523.0851057285,
        "Argument of Periapsis(deg)": 0.008632512899338408,
        "Eccentricity": 0.0,
        "Inclination(deg)": 45.0,
        "Latitude(deg)": 36.90283750457807,
        "Longitude(deg)": -2.259691545650937,
        "Mean Anomaly(deg)": 57.83186419598546,
        "RAAN(deg)": 49.991851160158,
        "Satellite Name": "Constellation 1 223",
        "Satellite Number": 223,
        "Semi-Major Axis(m)": 7083131.272910544,
        "Time(s)": 144
    },
    {
        "Altitude(m)": 705528.857632901,
        "Argument of Periapsis(deg)": 0.008692460905583814,
        "Eccentricity": 0.0,
        "Inclination(deg)": 45.0,
        "Latitude(deg)": 36.93146319787238,
        "Longitude(deg)": -2.196898814010812,
        "Mean Anomaly(deg)": 57.89256533623537,
        "RAAN(deg)": 49.991794570992425,
        "Satellite Name": "Constellation 1 223",
        "Satellite Number": 223,
        "Semi-Major Axis(m)": 7083131.272910544,
        "Time(s)": 145
    },
    {
        "Altitude(m)": 705534.6262204768,
        "Argument of Periapsis(deg)": 0.00875240891182922,
        "Eccentricity": 0.0,
        "Inclination(deg)": 45.0,
        "Latitude(deg)": 36.96005105426687,
        "Longitude(deg)": -2.134056098524063,
        "Mean Anomaly(deg)": 57.953266476485254,
        "RAAN(deg)": 49.99173798182685,
        "Satellite Name": "Constellation 1 223",
        "Satellite Number": 223,
        "Semi-Major Axis(m)": 7083131.272910544,
        "Time(s)": 146
    },
    {
        "Altitude(m)": 705540.3908324966,
        "Argument of Periapsis(deg)": 0.008812356918074627,
        "Eccentricity": 0.0,
        "Inclination(deg)": 45.0,
        "Latitude(deg)": 36.988601006989896,
        "Longitude(deg)": -2.0711633760062376,
        "Mean Anomaly(deg)": 58.013967616735165,
        "RAAN(deg)": 49.99168139266128,
        "Satellite Name": "Constellation 1 223",
        "Satellite Number": 223,
        "Semi-Major Axis(m)": 7083131.272910544,
        "Time(s)": 147
    },
    {
        "Altitude(m)": 705546.1514330338,
        "Argument of Periapsis(deg)": 0.008872304924320031,
        "Eccentricity": 0.0,
        "Inclination(deg)": 45.0,
        "Latitude(deg)": 37.0171129892219,
        "Longitude(deg)": -2.008220791658649,
        "Mean Anomaly(deg)": 58.07466875698505,
        "RAAN(deg)": 49.99162480349572,
        "Satellite Name": "Constellation 1 223",
        "Satellite Number": 223,
        "Semi-Major Axis(m)": 7083131.272910544,
        "Time(s)": 148
    },
    {
        "Altitude(m)": 705551.9079861991,
        "Argument of Periapsis(deg)": 0.008932252930565437,
        "Eccentricity": 0.0,
        "Inclination(deg)": 45.0,
        "Latitude(deg)": 37.0455869340971,
        "Longitude(deg)": -1.9452279866817899,
        "Mean Anomaly(deg)": 58.13536989723496,
        "RAAN(deg)": 49.991568214330144,
        "Satellite Name": "Constellation 1 223",
        "Satellite Number": 223,
        "Semi-Major Axis(m)": 7083131.272910544,
        "Time(s)": 149
    },
    {
        "Altitude(m)": 705557.660456139,
        "Argument of Periapsis(deg)": 0.008992200936810843,
        "Eccentricity": 0.0,
        "Inclination(deg)": 45.0,
        "Latitude(deg)": 37.074022774701795,
        "Longitude(deg)": -1.882185106858905,
        "Mean Anomaly(deg)": 58.196071037484856,
        "RAAN(deg)": 49.99151162516458,
        "Satellite Name": "Constellation 1 223",
        "Satellite Number": 223,
        "Semi-Major Axis(m)": 7083131.272910544,
        "Time(s)": 150
    },
    {
        "Altitude(m)": 705563.4088070354,
        "Argument of Periapsis(deg)": 0.009052148943056249,
        "Eccentricity": 0.0,
        "Inclination(deg)": 45.0,
        "Latitude(deg)": 37.102420444076145,
        "Longitude(deg)": -1.8190921301691076,
        "Mean Anomaly(deg)": 58.256772177734746,
        "RAAN(deg)": 49.991455035999,
        "Satellite Name": "Constellation 1 223",
        "Satellite Number": 223,
        "Semi-Major Axis(m)": 7083131.272910544,
        "Time(s)": 151
    }
]